NORAD_CAT_ID,OBJECT_NAME,OBJECT_TYPE,EPOCH,MEAN_MOTION,ECCENTRICITY,INCLINATION,RA_OF_ASC_NODE,ARG_OF_PERICENTER,MEAN_ANOMALY,BSTAR,MEAN_MOTION_DOT,MEAN_MOTION_DDOT,TLE_LINE0,TLE_LINE1,TLE_LINE2,SEMIMAJOR_AXIS,PERIOD,APOGEE,PERIGEE,DECAYED
53287.0,STARLINK-4107,PAYLOAD,2024-06-21 00:29:39,15.08834565,0.000134,53.2187,117.3516,94.549,265.5656,2.0263e-05,3.5e-07,0.0,0 STARLINK-4107,1 53287U 22086AX  24173.02059524  .00000035  00000-0  20263-4 0  9992,2 53287  53.2187 117.3516 0001340  94.5490 265.5656 15.08834565106429,6917.897,95.438,540.689,538.835,0.0
53287.0,STARLINK-4107,PAYLOAD,2024-06-21 06:51:11,15.08837296,0.0001291,53.2171,116.1598,88.1024,272.0116,3.4409e-05,2.6e-06,0.0,0 STARLINK-4107,1 53287U 22086AX  24173.28555401  .00000260  00000-0  34409-4 0  9992,2 53287  53.2171 116.1598 0001291  88.1024 272.0116 15.08837296106626,6917.889,95.438,540.647,538.861,0.0
53287.0,STARLINK-4107,PAYLOAD,2024-06-22 05:06:35,15.08837144,0.0001263,53.217,111.9973,93.2139,266.8997,6.0536e-05,6.76e-06,0.0,0 STARLINK-4107,1 53287U 22086AX  24174.21291554  .00000676  00000-0  60536-4 0  9993,2 53287  53.2170 111.9973 0001263  93.2139 266.8997 15.08837144106606,6917.889,95.438,540.628,538.88,0.0
53287.0,STARLINK-4107,PAYLOAD,2024-06-23 04:57:22,15.08845053,0.0001291,53.2172,107.5359,95.623,264.4909,0.00010072,1.316e-05,0.0,0 STARLINK-4107,1 53287U 22086AX  24175.20650998  .00001316  00000-0  10072-3 0  9995,2 53287  53.2172 107.5359 0001291  95.6230 264.4909 15.08845053106757,6917.865,95.437,540.623,538.837,0.0
53287.0,STARLINK-4107,PAYLOAD,2024-06-24 01:37:23,15.0884381,0.0001345,53.2178,103.669,94.8418,265.2727,6.833e-05,8e-06,0.0,0 STARLINK-4107,1 53287U 22086AX  24176.06763026  .00000800  00000-0  68330-4 0  9995,2 53287  53.2178 103.6690 0001345  94.8418 265.2727 15.08843810107046,6917.869,95.437,540.664,538.803,0.0
53287.0,STARLINK-4107,PAYLOAD,2024-06-25 01:28:10,15.08841002,0.0001484,53.2185,99.2074,80.1058,280.0102,-4.7342e-06,-3.63e-06,0.0,0 STARLINK-4107,1 53287U 22086AX  24177.06123374 -.00000363  00000-0 -47342-5 0  9999,2 53287  53.2185  99.2074 0001484  80.1058 280.0102 15.08841002107034,6917.877,95.437,540.769,538.716,0.0
53287.0,STARLINK-4107,PAYLOAD,2024-06-25 22:08:11,15.08839519,0.0001471,53.2179,95.3537,110.8352,249.2797,3.5962e-05,2.84e-06,0.0,0 STARLINK-4107,1 53287U 22086AX  24177.92235210  .00000284  00000-0  35962-4 0  9991,2 53287  53.2179  95.3537 0001471 110.8352 249.2797 15.08839519107321,6917.882,95.438,540.764,538.729,0.0
53287.0,STARLINK-4107,PAYLOAD,2024-06-26 01:18:57,15.08841569,0.0001376,53.2174,94.7548,89.1715,270.9435,5.0984e-05,5.24e-06,0.0,0 STARLINK-4107,1 53287U 22086AX  24178.05483087  .00000524  00000-0  50984-4 0  9991,2 53287  53.2174  94.7548 0001376  89.1715 270.9435 15.08841569107346,6917.876,95.437,540.692,538.789,0.0
53287.0,STARLINK-4107,PAYLOAD,2024-06-27 01:09:46,15.0881893,0.0001148,53.2172,90.291,66.2181,293.8931,-0.00010455,-1.95e-05,0.0,0 STARLINK-4107,1 53287U 22086AX  24179.04844984 -.00001950  00000-0 -10455-3 0  9992,2 53287  53.2172  90.2910 0001148  66.2181 293.8931 15.08818930107338,6917.945,95.439,540.604,539.016,0.0
53287.0,STARLINK-4107,PAYLOAD,2024-06-27 21:49:46,15.08829841,0.000124,53.2157,86.4154,41.0507,319.0578,-7.3968e-05,-1.465e-05,0.0,0 STARLINK-4107,1 53287U 22086AX  24179.90957088 -.00001465  00000-0 -73968-4 0  9997,2 53287  53.2157  86.4154 0001240  41.0507 319.0578 15.08829841107627,6917.911,95.438,540.634,538.919,0.0
53287.0,STARLINK-4107,PAYLOAD,2024-06-28 01:00:32,15.08836711,0.0001198,53.2172,85.8332,103.5857,256.5269,2.1582e-05,5.6e-07,0.0,0 STARLINK-4107,1 53287U 22086AX  24180.04204468  .00000056  00000-0  21582-4 0  9999,2 53287  53.2172  85.8332 0001198 103.5857 256.5269 15.08836711107489,6917.89,95.438,540.584,538.927,0.0
53287.0,STARLINK-4107,PAYLOAD,2024-06-28 10:32:49,15.08855933,0.0001027,53.2157,84.0406,58.3772,301.732,0.00020836,3.031e-05,0.0,0 STARLINK-4107,1 53287U 22086AX  24180.43946558  .00003031  00000-0  20836-3 0  9991,2 53287  53.2157  84.0406 0001027  58.3772 301.7320 15.08855933107544,6917.832,95.437,540.407,538.986,0.0
53287.0,STARLINK-4107,PAYLOAD,2024-06-28 21:40:33,15.08823015,0.0001042,53.2151,81.9568,34.811,325.295,0.00012367,1.68e-05,0.0,0 STARLINK-4107,1 53287U 22086AX  24180.90316880  .00001680  00000-0  12367-3 0  9990,2 53287  53.2151  81.9568 0001042  34.8110 325.2950 15.08823015107619,6917.932,95.439,540.518,539.076,0.0
53287.0,STARLINK-4107,PAYLOAD,2024-06-29 04:02:05,15.08839559,0.0001199,53.2157,80.7695,46.1293,313.9798,0.0002696,4.005e-05,0.0,0 STARLINK-4107,1 53287U 22086AX  24181.16811785  .00004005  00000-0  26960-3 0  9991,2 53287  53.2157  80.7695 0001199  46.1293 313.9798 15.08839559107652,6917.882,95.438,540.576,538.917,0.0
53287.0,STARLINK-4107,PAYLOAD,2024-06-29 10:23:36,15.08851673,0.0001054,53.2168,79.587,66.1483,293.9619,0.00038375,5.827e-05,0.0,0 STARLINK-4107,1 53287U 22086AX  24181.43306703  .00005827  00000-0  38375-3 0  9996,2 53287  53.2168  79.5870 0001054  66.1483 293.9619 15.08851673107692,6917.845,95.437,540.439,538.981,0.0
53287.0,STARLINK-4107,PAYLOAD,2024-06-29 16:45:12,15.08815292,0.0001172,53.2155,78.3971,79.9085,280.2039,-0.00010574,-1.969e-05,0.0,0 STARLINK-4107,1 53287U 22086AX  24181.69806496 -.00001969  00000-0 -10574-3 0  9994,2 53287  53.2155  78.3971 0001172  79.9085 280.2039 15.08815292107735,6917.956,95.439,540.632,539.01,0.0
53287.0,STARLINK-4107,PAYLOAD,2024-06-29 23:06:45,15.08817853,0.0001027,53.2169,77.2077,80.0454,280.0654,-0.00017011,-2.992e-05,0.0,0 STARLINK-4107,1 53287U 22086AX  24181.96302818 -.00002992  00000-0 -17011-3 0  9993,2 53287  53.2169  77.2077 0001027  80.0454 280.0654 15.08817853107935,6917.948,95.439,540.524,539.103,0.0
53287.0,STARLINK-4107,PAYLOAD,2024-06-30 00:42:07,15.08833765,6.9e-05,53.2167,76.905,82.4194,277.6876,-0.00015648,-2.777e-05,0.0,0 STARLINK-4107,1 53287U 22086AX  24182.02925684 -.00002777  00000-0 -15648-3 0  9998,2 53287  53.2167  76.9050 0000690  82.4194 277.6876 15.08833765107783,6917.899,95.438,540.242,539.287,0.0
53287.0,STARLINK-4107,PAYLOAD,2024-06-30 10:14:26,15.08839195,7.3e-05,53.2171,75.1208,71.8975,288.2096,-0.00012008,-2.198e-05,0.0,0 STARLINK-4107,1 53287U 22086AX  24182.42669298 -.00002198  00000-0 -12008-3 0  9992,2 53287  53.2171  75.1208 0000730  71.8975 288.2096 15.08839195107840,6917.883,95.438,540.253,539.243,0.0
53287.0,STARLINK-4107,PAYLOAD,2024-06-30 22:57:30,15.08843725,9.08e-05,53.2156,72.7472,61.3905,298.7178,0.00028163,4.198e-05,0.0,0 STARLINK-4107,1 53287U 22086AX  24182.95660866  .00004198  00000-0  28163-3 0  9991,2 53287  53.2156  72.7472 0000908  61.3905 298.7178 15.08843725108081,6917.869,95.437,540.362,539.106,0.0
53287.0,STARLINK-4107,PAYLOAD,2024-07-01 10:05:12,15.08862364,0.0001012,53.2164,70.6659,65.2588,294.851,0.00064096,9.934e-05,0.0,0 STARLINK-4107,1 53287U 22086AX  24183.42028186  .00009934  00000-0  64096-3 0  9995,2 53287  53.2164  70.6659 0001012  65.2588 294.8510 15.08862364107997,6917.812,95.436,540.377,538.977,0.0
53287.0,STARLINK-4107,PAYLOAD,2024-07-01 21:12:54,15.08846441,0.0001113,53.2158,68.5839,71.3048,288.8065,0.00035028,5.292e-05,0.0,0 STARLINK-4107,1 53287U 22086AX  24183.88396904  .00005292  00000-0  35028-3 0  9997,2 53287  53.2158  68.5839 0001113  71.3048 288.8065 15.08846441108062,6917.861,95.437,540.496,538.956,0.0
53287.0,STARLINK-4107,PAYLOAD,2024-07-01 22:48:17,15.08850886,0.0001001,53.2167,68.2846,87.2358,272.8749,0.00023803,3.504e-05,0.0,0 STARLINK-4107,1 53287U 22086AX  24183.95020449  .00003504  00000-0  23803-3 0  9995,2 53287  53.2167  68.2846 0001001  87.2358 272.8749 15.08850886108232,6917.847,95.437,540.405,539.02,0.0
53287.0,STARLINK-4107,PAYLOAD,2024-07-02 01:59:03,15.08858983,9.83e-05,53.2167,67.6901,86.2334,273.8771,0.00066607,0.00010334,0.0,0 STARLINK-4107,1 53287U 22086AX  24184.08268334  .00010334  00000-0  66607-3 0  9995,2 53287  53.2167  67.6901 0000983  86.2334 273.8771 15.08858983108094,6917.822,95.436,540.367,539.007,0.0
53287.0,STARLINK-4107,PAYLOAD,2024-07-02 09:55:59,15.08853092,0.0001061,53.2169,66.2026,92.6994,267.4119,0.00091592,0.00014324,0.0,0 STARLINK-4107,1 53287U 22086AX  24184.41388385  .00014324  00000-0  91592-3 0  9995,2 53287  53.2169  66.2026 0001061  92.6994 267.4119 15.08853092108147,6917.84,95.437,540.439,538.971,0.0
53287.0,STARLINK-4107,PAYLOAD,2024-07-02 21:03:41,15.08851408,0.0001256,53.2173,64.1215,124.7561,235.355,0.00051031,7.845e-05,0.0,0 STARLINK-4107,1 53287U 22086AX  24184.87756262  .00007845  00000-0  51031-3 0  9992,2 53287  53.2173  64.1215 0001256 124.7561 235.3550 15.08851408108212,6917.846,95.437,540.579,538.842,0.0
53287.0,STARLINK-4107,PAYLOAD,2024-07-02 22:39:04,15.08844685,0.0001056,53.2178,63.8247,79.3453,280.7658,0.00043682,6.672e-05,0.0,0 STARLINK-4107,1 53287U 22086AX  24184.94380496  .00006672  00000-0  43682-3 0  9992,2 53287  53.2178  63.8247 0001056  79.3453 280.7658 15.08844685108381,6917.866,95.437,540.462,539.001,0.0
53287.0,STARLINK-4107,PAYLOAD,2024-07-03 20:54:27,15.08849785,0.0004189,53.217,59.663,0.1113,359.9879,0.00044294,6.77e-05,0.0,0 STARLINK-4107,1 53287U 22086AX  24185.87115589  .00006770  00000-0  44294-3 0  9993,2 53287  53.2170  59.6630 0004189   0.1113 359.9879 15.08849785108365,6917.85,95.437,542.613,536.818,0.0
53287.0,STARLINK-4107,PAYLOAD,2024-07-03 22:29:50,15.08831692,0.0001198,53.217,59.3632,86.051,274.0619,-0.00087367,-0.00014162,0.0,0 STARLINK-4107,1 53287U 22086AX  24185.93738951 -.00014162  00000-0 -87367-3 0  9998,2 53287  53.2170  59.3632 0001198  86.0510 274.0619 15.08831692108531,6917.906,95.438,540.6,538.942,0.0
53287.0,STARLINK-4107,PAYLOAD,2024-07-04 08:02:09,15.0882868,0.0001338,53.218,57.5814,90.1763,269.9383,-0.00016669,-2.939e-05,0.0,0 STARLINK-4107,1 53287U 22086AX  24186.33483449 -.00002939  00000-0 -16669-3 0  9998,2 53287  53.2180  57.5814 0001338  90.1763 269.9383 15.08828680108439,6917.915,95.438,540.706,538.854,0.0
